NORAD_CAT_ID,OBJECT_NAME,OBJECT_TYPE,EPOCH,MEAN_MOTION,ECCENTRICITY,INCLINATION,RA_OF_ASC_NODE,ARG_OF_PERICENTER,MEAN_ANOMALY,BSTAR,MEAN_MOTION_DOT,MEAN_MOTION_DDOT,TLE_LINE0,TLE_LINE1,TLE_LINE2,SEMIMAJOR_AXIS,PERIOD,APOGEE,PERIGEE,DECAYED
52862.0,STARLINK-4010,PAYLOAD,2023-02-12 05:30:13,15.08849256,0.0002266,53.2184,18.5459,85.5898,274.5353,0.001429,0.00022534,0.0,0 STARLINK-4010,1 52862U 22062AJ  23043.22932818  .00022534  00000-0  14290-2 0  9996,2 52862  53.2184  18.5459 0002266  85.5898 274.5353 15.08849256 37118,6917.852,95.437,541.285,538.15,0.0
52862.0,STARLINK-4010,PAYLOAD,2023-02-12 10:16:23,15.08840822,0.0002022,53.2173,17.6544,83.8222,276.3,0.0007917,0.00012335,0.0,0 STARLINK-4010,1 52862U 22062AJ  23043.42804884  .00012335  00000-0  79170-3 0  9996,2 52862  53.2173  17.6544 0002022  83.8222 276.3000 15.08840822 36650,6917.878,95.438,541.142,538.344,0.0
52862.0,STARLINK-4010,PAYLOAD,2023-02-12 15:02:33,15.08806425,0.0003172,53.2177,16.7582,89.7592,270.3764,-0.00036401,-6.072e-05,0.0,0 STARLINK-4010,1 52862U 22062AJ  23043.62677615 -.00006072  00000-0 -36401-3 0  9991,2 52862  53.2177  16.7582 0003172  89.7592 270.3764 15.08806425 37178,6917.983,95.44,542.042,537.654,0.0
52862.0,STARLINK-4010,PAYLOAD,2023-02-13 10:07:10,15.08849636,6.01e-05,53.2186,13.1936,91.2724,268.8337,0.0007337,0.00011411,0.0,0 STARLINK-4010,1 52862U 22062AJ  23044.42164901  .00011411  00000-0  73370-3 0  9996,2 52862  53.2186  13.1936 0000601  91.2724 268.8337 15.08849636 37293,6917.851,95.437,540.132,539.3,0.0
52862.0,STARLINK-4010,PAYLOAD,2023-02-14 09:57:57,15.08844508,0.0002314,53.2187,8.7334,214.8613,145.2228,0.00051986,7.996e-05,0.0,0 STARLINK-4010,1 52862U 22062AJ  23045.41524508  .00007996  00000-0  51986-3 0  9991,2 52862  53.2187   8.7334 0002314 214.8613 145.2228 15.08844508 37446,6917.867,95.437,541.332,538.131,0.0
52862.0,STARLINK-4010,PAYLOAD,2023-02-14 14:44:07,15.08807599,0.000105,53.2186,7.8418,104.4067,255.7042,-0.00033827,-5.662e-05,0.0,0 STARLINK-4010,1 52862U 22062AJ  23045.61397968 -.00005662  00000-0 -33827-3 0  9995,2 52862  53.2186   7.8418 0001050 104.4067 255.7042 15.08807599 37474,6917.979,95.44,540.571,539.118,0.0
52862.0,STARLINK-4010,PAYLOAD,2023-02-15 03:27:13,15.08834954,0.0001237,53.2169,5.4637,96.9634,263.1499,0.0018829,0.00029801,0.0,0 STARLINK-4010,1 52862U 22062AJ  23046.14391028  .00029801  00000-0  18829-2 0  9998,2 52862  53.2169   5.4637 0001237  96.9634 263.1499 15.08834954 37557,6917.896,95.438,540.617,538.905,0.0
52862.0,STARLINK-4010,PAYLOAD,2023-02-15 20:56:27,15.08870336,0.0001291,53.2161,2.1915,100.4404,259.6733,0.001658,0.0002622,0.0,0 STARLINK-4010,1 52862U 22062AJ  23046.87254424  .00026220  00000-0  16580-2 0  9990,2 52862  53.2161   2.1915 0001291 100.4404 259.6733 15.08870336 37171,6917.788,95.436,540.546,538.76,0.0
52862.0,STARLINK-4010,PAYLOAD,2023-02-16 14:25:41,15.08877421,0.0001816,53.2182,358.9211,77.7589,282.3607,0.0017481,0.00027671,0.0,0 STARLINK-4010,1 52862U 22062AJ  23047.60117634  .00027671  00000-0  17481-2 0  9995,2 52862  53.2182 358.9211 0001816  77.7589 282.3607 15.08877421 37779,6917.766,95.435,540.887,538.375,0.0
52862.0,STARLINK-4010,PAYLOAD,2023-02-17 06:19:33,15.08827935,9.36e-05,53.2183,355.9438,126.6949,233.4129,0.0011857,0.00018627,0.0,0 STARLINK-4010,1 52862U 22062AJ  23048.26358194  .00018627  00000-0  11857-2 0  9998,2 52862  53.2183 355.9438 0000936 126.6949 233.4129 15.08827935 37876,6917.917,95.438,540.43,539.135,0.0
52862.0,STARLINK-4010,PAYLOAD,2023-02-17 07:54:56,15.08844583,7.19e-05,53.2194,355.6499,122.1102,237.996,0.0019489,0.00030869,0.0,0 STARLINK-4010,1 52862U 22062AJ  23048.32982032  .00030869  00000-0  19489-2 0  9990,2 52862  53.2194 355.6499 0000719 122.1102 237.9960 15.08844583 37884,6917.866,95.437,540.229,539.234,0.0
52862.0,STARLINK-4010,PAYLOAD,2023-02-18 06:10:22,15.08830018,6.61e-05,53.2192,351.4871,55.9386,304.1669,0.0020314,0.00032181,0.0,0 STARLINK-4010,1 52862U 22062AJ  23049.25720534  .00032181  00000-0  20314-2 0  9998,2 52862  53.2192 351.4871 0000661  55.9386 304.1669 15.08830018 38021,6917.911,95.438,540.233,539.319,0.0
52862.0,STARLINK-4010,PAYLOAD,2023-02-18 12:31:55,15.08846809,0.0001078,53.2196,350.298,33.0792,327.0267,0.0019747,0.00031285,0.0,0 STARLINK-4010,1 52862U 22062AJ  23049.52216649  .00031285  00000-0  19747-2 0  9997,2 52862  53.2196 350.2980 0001078  33.0792 327.0267 15.08846809 37576,6917.86,95.437,540.47,538.979,0.0
52862.0,STARLINK-4010,PAYLOAD,2023-02-19 12:22:40,15.08877234,9.5e-05,53.2185,345.8382,17.0274,343.075,0.0010077,0.00015802,0.0,0 STARLINK-4010,1 52862U 22062AJ  23050.51574669  .00015802  00000-0  10077-2 0  9991,2 52862  53.2185 345.8382 0000950  17.0274 343.0750 15.08877234 38218,6917.767,95.435,540.289,538.974,0.0
52862.0,STARLINK-4010,PAYLOAD,2023-02-19 23:30:22,15.0885381,9.35e-05,53.2188,343.7569,60.7048,299.4038,0.0013362,0.0002105,0.0,0 STARLINK-4010,1 52862U 22062AJ  23050.97942985  .00021050  00000-0  13362-2 0  9993,2 52862  53.2188 343.7569 0000935  60.7048 299.4038 15.08853810 38286,6917.838,95.437,540.35,539.056,0.0
52862.0,STARLINK-4010,PAYLOAD,2023-02-20 12:13:27,15.08858076,0.0001272,53.2188,341.3778,76.7618,283.3516,0.0010545,0.00016542,0.0,0 STARLINK-4010,1 52862U 22062AJ  23051.50935001  .00016542  00000-0  10545-2 0  9994,2 52862  53.2188 341.3778 0001272  76.7618 283.3516 15.08858076 38368,6917.825,95.436,540.57,538.81,0.0
52862.0,STARLINK-4010,PAYLOAD,2023-02-20 23:21:09,15.0885004,8.6e-05,53.2186,339.2976,88.5825,271.5266,0.0011822,0.00018582,0.0,0 STARLINK-4010,1 52862U 22062AJ  23051.97302840  .00018582  00000-0  11822-2 0  9999,2 52862  53.2186 339.2976 0000860  88.5825 271.5266 15.08850040 38437,6917.85,95.437,540.31,539.12,0.0
52862.0,STARLINK-4010,PAYLOAD,2023-02-21 12:04:14,15.08854061,0.0001416,53.2187,336.9169,66.8597,293.2544,0.0006097,9.432e-05,0.0,0 STARLINK-4010,1 52862U 22062AJ  23052.50294609  .00009432  00000-0  60970-3 0  9995,2 52862  53.2187 336.9169 0001416  66.8597 293.2544 15.08854061 38515,6917.837,95.437,540.682,538.723,0.0
52862.0,STARLINK-4010,PAYLOAD,2023-02-22 02:22:42,15.08855144,0.0001183,53.2185,334.2421,63.8472,296.2642,0.00034629,5.23e-05,0.0,0 STARLINK-4010,1 52862U 22062AJ  23053.09910120  .00005230  00000-0  34629-3 0  9997,2 52862  53.2185 334.2421 0001183  63.8472 296.2642 15.08855144 38600,6917.834,95.437,540.517,538.881,0.0
52862.0,STARLINK-4010,PAYLOAD,2023-02-22 03:58:05,15.08862321,0.0001116,53.2174,333.9436,67.105,293.006,0.00058869,9.099e-05,0.0,0 STARLINK-4010,1 52862U 22062AJ  23053.16533853  .00009099  00000-0  58869-3 0  9998,2 52862  53.2174 333.9436 0001116  67.1050 293.0060 15.08862321 38126,6917.812,95.436,540.449,538.905,0.0
52862.0,STARLINK-4010,PAYLOAD,2023-02-23 00:38:07,15.08832507,0.0001014,53.2191,330.0782,78.0757,282.0348,0.000251,3.708e-05,0.0,0 STARLINK-4010,1 52862U 22062AJ  23054.02647068  .00003708  00000-0  25100-3 0  9991,2 52862  53.2191 330.0782 0001014  78.0757 282.0348 15.08832507 38747,6917.903,95.438,540.47,539.067,0.0
52862.0,STARLINK-4010,PAYLOAD,2023-02-23 18:07:21,15.08846141,0.0001215,53.2176,326.8103,69.1736,290.9386,0.00086553,0.00013516,0.0,0 STARLINK-4010,1 52862U 22062AJ  23054.75511392  .00013516  00000-0  86553-3 0  9998,2 52862  53.2176 326.8103 0001215  69.1736 290.9386 15.08846141 38368,6917.862,95.437,540.567,538.886,0.0
52862.0,STARLINK-4010,PAYLOAD,2023-02-24 03:39:40,15.0887202,0.0001318,53.2177,325.0232,77.9061,282.2079,0.0023672,0.0003762,0.0,0 STARLINK-4010,1 52862U 22062AJ  23055.15254903  .00037620  00000-0  23672-2 0  9999,2 52862  53.2177 325.0232 0001318  77.9061 282.2079 15.08872020 38914,6917.783,95.436,540.559,538.736,0.0
52862.0,STARLINK-4010,PAYLOAD,2023-02-25 00:19:41,15.08841372,0.0001184,53.2179,321.1583,92.2154,267.8974,0.0008926,0.00013947,0.0,0 STARLINK-4010,1 52862U 22062AJ  23056.01367075  .00013947  00000-0  89260-3 0  9992,2 52862  53.2179 321.1583 0001184  92.2154 267.8974 15.08841372 39040,6917.876,95.437,540.56,538.922,0.0
52862.0,STARLINK-4010,PAYLOAD,2023-02-25 03:30:27,15.08848408,0.0001203,53.2176,320.5627,92.8893,267.2237,0.00051648,7.943e-05,0.0,0 STARLINK-4010,1 52862U 22062AJ  23056.14614925  .00007943  00000-0  51648-3 0  9993,2 52862  53.2176 320.5627 0001203  92.8893 267.2237 15.08848408 38577,6917.855,95.437,540.552,538.887,0.0
52862.0,STARLINK-4010,PAYLOAD,2023-02-25 20:59:42,15.08843032,0.0001241,53.2172,317.2905,94.1916,265.9218,0.00047828,7.333e-05,0.0,0 STARLINK-4010,1 52862U 22062AJ  23056.87479245  .00007333  00000-0  47828-3 0  9995,2 52862  53.2172 317.2905 0001241  94.1916 265.9218 15.08843032 38682,6917.871,95.437,540.595,538.878,0.0
52862.0,STARLINK-4010,PAYLOAD,2023-02-26 00:10:28,15.08852135,0.0001261,53.2186,316.6985,90.4974,269.6163,0.00069382,0.00010775,0.0,0 STARLINK-4010,1 52862U 22062AJ  23057.00727072  .00010775  00000-0  69382-3 0  9998,2 52862  53.2186 316.6985 0001261  90.4974 269.6163 15.08852135 39194,6917.843,95.437,540.581,538.836,0.0
52862.0,STARLINK-4010,PAYLOAD,2023-02-27 01:36:37,15.08866861,0.000135,53.2189,311.9415,92.2221,267.8926,0.00071959,0.00011191,0.0,0 STARLINK-4010,1 52862U 22062AJ  23058.06710075  .00011191  00000-0  71959-3 0  9996,2 52862  53.2189 311.9415 0001350  92.2221 267.8926 15.08866861 39353,6917.798,95.436,540.597,538.729,0.0
52862.0,STARLINK-4010,PAYLOAD,2023-02-27 15:55:05,15.08887033,0.0001673,53.2178,309.2635,88.7703,271.348,0.001269,0.00019992,0.0,0 STARLINK-4010,1 52862U 22062AJ  23058.66325349  .00019992  00000-0  12690-2 0  9991,2 52862  53.2178 309.2635 0001673  88.7703 271.3480 15.08887033 38952,6917.737,95.435,540.759,538.444,0.0
52862.0,STARLINK-4010,PAYLOAD,2023-02-28 03:02:46,15.08873145,0.0001697,53.2175,307.1792,76.2148,283.9033,0.0011263,0.00017699,0.0,0 STARLINK-4010,1 52862U 22062AJ  23059.12693171  .00017699  00000-0  11263-2 0  9991,2 52862  53.2175 307.1792 0001697  76.2148 283.9033 15.08873145 39516,6917.779,95.435,540.818,538.47,0.0
